GSAT0101 (PRN E11)      
1 37846U 11060A   20222.33138686 -.00000062  00000-0  00000-0 0  9991
2 37846  56.6627  39.8301 0002319  37.5146 322.5348  1.70475642 54672
GSAT0102 (PRN E12)      
1 37847U 11060B   20223.13899935 -.00000058  00000-0  00000-0 0  9997
2 37847  56.6640  39.8073 0002243 342.0441 199.7552  1.70475739 54692
GSAT0103 (PRN E19)      
1 38857U 12055A   20222.95987484  .00000012  00000-0  00000-0 0  9999
2 38857  54.9866 160.3096 0003887 274.2522  85.6877  1.70473893 48720
GSAT0104 (PRN E20)      
1 38858U 12055B   20222.30766275  .00000011  00000-0  00000-0 0  9991
2 38858  54.9877 160.3269 0002877 284.2946  75.6558  1.70473878 48711
GSAT0201 (PRN E18)      
1 40128U 14050A   20222.76228206 -.00000111  00000-0  00000-0 0  9990
2 40128  50.5632 359.2468 1662179 101.1248 277.9583  1.85519206 38698
GSAT0202 (PRN E14)      
1 40129U 14050B   20223.02580570 -.00000110  00000-0  00000-0 0  9995
2 40129  50.5995 358.2748 1660023 101.9521 277.0845  1.85519937 40831
GSAT0203 (PRN E26)      
1 40544U 15017A   20221.52581523 -.00000066  00000-0  00000-0 0  9992
2 40544  56.4564  39.9790 0002091 219.0252 140.9925  1.70475082 32749
GSAT0204 (PRN E22)      
1 40545U 15017B   20221.89350445 -.00000064  00000-0  00000-0 0  9998
2 40545  56.4619  39.9846 0002558 153.4805 206.5657  1.70475398 33412
GSAT0205 (PRN E24)      
1 40889U 15045A   20223.30916042 -.00000000  00000-0  00000+0 0  9998
2 40889  56.1093 280.6193 0002441 341.9947  18.0743  1.70475566 30582
GSAT0206 (PRN E30)      
1 40890U 15045B   20223.52870897  .00000001  00000-0  00000-0 0  9992
2 40890  56.1089 280.6094 0001734 294.5117  65.5478  1.70475969 30618
GSAT0209 (PRN E09)      
1 41174U 15079A   20223.11488890  .00000012  00000-0  00000+0 0  9999
2 41174  55.0013 160.0035 0005259 312.6719  47.2688  1.70473025 28923
GSAT0208 (PRN E08)      
1 41175U 15079B   20222.16144818  .00000010  00000-0  00000+0 0  9991
2 41175  54.9994 160.0290 0004460 313.3599  46.5852  1.70473113 28912
GSAT0211 (PRN E02)      
1 41549U 16030A   20222.28334887 -.00000004  00000-0  00000+0 0  9998
2 41549  56.2518 280.5058 0003701 284.5022  75.5358  1.70475319 26204
GSAT0210 (PRN E01)      
1 41550U 16030B   20223.16283434 -.00000000  00000-0  00000+0 0  9995
2 41550  56.2511 280.4835 0004214 256.6408 103.3901  1.70475344 26212
GSAT0207 (PRN E07)      
1 41859U 16069A   20221.06140056  .00000007  00000-0  00000+0 0  9994
2 41859  54.6595 160.4097 0005130 300.6558  59.2700  1.70472848 23162
GSAT0212 (PRN E03)      
1 41860U 16069B   20223.26119625  .00000012  00000-0  00000-0 0  9995
2 41860  54.6577 160.3476 0004163 321.4013  38.5536  1.70472969 23224
GSAT0213 (PRN E04)      
1 41861U 16069C   20223.04042574  .00000012  00000-0  00000+0 0  9999
2 41861  54.6606 160.3576 0004186 282.2351  77.7022  1.70473068 23229
GSAT0214 (PRN E05)      
1 41862U 16069D   20223.18744047  .00000012  00000-0  00000-0 0  9990
2 41862  54.6584 160.3490 0003446 289.3297  70.6175  1.70473008 23219
GSAT0215 (PRN E21)      
1 43055U 17079A   20221.91775026 -.00000006  00000-0  00000+0 0  9991
2 43055  56.2273 280.3590 0003674 249.2513 110.7890  1.70474502 16538
GSAT0216 (PRN E25)      
1 43056U 17079B   20219.86414515 -.00000010  00000-0  00000+0 0  9991
2 43056  56.2293 280.4147 0005364 257.8920 102.1334  1.70474573 16485
GSAT0217 (PRN E27)      
1 43057U 17079C   20222.43052999 -.00000004  00000-0  00000+0 0  9996
2 43057  56.2242 280.3449 0004711 266.1292  93.8957  1.70474600 16549
GSAT0218 (PRN E31)      
1 43058U 17079D   20223.23711087  .00000000  00000-0  00000+0 0  9991
2 43058  56.2248 280.3202 0005972 255.9960 104.0154  1.70474505 16550
GSAT0221 (PRN E15)      
1 43564U 18060A   20221.96366006 -.00000063  00000-0  00000-0 0  9990
2 43564  56.8442  39.6077 0002239 260.1656  99.8415  1.70476059 12713
GSAT0222 (PRN E33)      
1 43565U 18060B   20222.18351229 -.00000062  00000-0  00000+0 0  9995
2 43565  56.8457  39.6013 0001860 276.7668  83.2447  1.70476076 12761
GSAT0219 (PRN E36)      
1 43566U 18060C   20223.57698407 -.00000056  00000-0  00000-0 0  9996
2 43566  56.8475  39.5650 0001636 260.2362  99.7802  1.70475937 12760
GSAT0220 (PRN E13)      
1 43567U 18060D   20219.10419761 -.00000072  00000-0  00000+0 0  9992
2 43567  56.8444  39.6874 0001579 266.6088  93.4070  1.70475975 12666
